[
    {
        "Altitude(m)": 622205.9002198343,
        "Argument of Periapsis(deg)": 0.0,
        "Eccentricity": 0.0,
        "Inclination(deg)": 60.0,
        "Latitude(deg)": -52.16252574724655,
        "Longitude(deg)": -112.29965450324408,
        "Mean Anomaly(deg)": -114.54549999999999,
        "RAAN(deg)": 120.0,
        "Satellite Name": "Test1 543",
        "Satellite Number": 543,
        "Semi-Major Axis(m)": 6980739.136638005,
        "Time(s)": 0
    },
    {
        "Altitude(m)": 622344.8068400358,
        "Argument of Periapsis(deg)": 0.00010418945913296404,
        "Eccentricity": 0.0,
        "Inclination(deg)": 60.0,
        "Latitude(deg)": -52.52010584740688,
        "Longitude(deg)": -111.51844117004116,
        "Mean Anomaly(deg)": -113.92539385453814,
        "RAAN(deg)": 119.99957995086024,
        "Satellite Name": "Test1 543",
        "Satellite Number": 543,
        "Semi-Major Axis(m)": 6980739.136638005,
        "Time(s)": 10
    }
]